*******************************************************************************
Ephemeris / WWW_USER Fri Mar  7 11:04:39 2025 Pasadena, USA      / Horizons    
*******************************************************************************
Target body name: (2018 UM1)                      {source: JPL#32}
Center body name: Earth (399)                     {source: DE441}
Center-site name: Mauna Kea
*******************************************************************************
Start time      : A.D. 2018-Sep-04 04:44:00.0000 UT      
Stop  time      : A.D. 2018-Sep-04 15:57:00.0000 UT      
Step-size       : 1 minutes
*******************************************************************************
Target pole/equ : undefined
Target radii    : undefined                                                    
Center geodetic : 204.5278, 19.8260847, 4.21024   {E-lon(deg),Lat(deg),Alt(km)}
Center cylindric: 204.5278, 6006.35451, 2151.0229 {E-lon(deg),Dxy(km),Dz(km)}
Center pole/equ : ITRF93                          {East-longitude positive}
Center radii    : 6378.137, 6378.137, 6356.752 km {Equator_a, b, pole_c}       
Target primary  : Sun
Vis. interferer : MOON (R_eq= 1737.400) km        {source: DE441}
Rel. light bend : Sun                             {source: DE441}
Rel. lght bnd GM: 1.3271E+11 km^3/s^2                                          
Small-body perts: Yes                             {source: SB441-N16}
Atmos refraction: NO (AIRLESS)
RA format       : HMS
Time format     : CAL 
Calendar mode   : Mixed Julian/Gregorian
RTS-only print  : NO       
EOP file        : eop.250306.p250602                                           
EOP coverage    : DATA-BASED 1962-JAN-20 TO 2025-MAR-06. PREDICTS-> 2025-JUN-01
Units conversion: 1 au= 149597870.700 km, c= 299792.458 km/s, 1 day= 86400.0 s 
Table cut-offs 1: Elevation (-90.0deg=NO ),Airmass (>38.000=NO), Daylight (YES)
Table cut-offs 2: Solar elongation (  0.0,180.0=NO ),Local Hour Angle( 0.0=NO )
Table cut-offs 3: RA/DEC angular rate (     0.0=NO )                           
*******************************************************************************
Initial IAU76/J2000 heliocentric ecliptic osculating elements (au, days, deg.):
  EPOCH=  2458316.5 ! 2018-Jul-17.00 (TDB)         Residual RMS= .13282        
   EC= .1732206266096905   QR= .9442469573310488   TP= 2458347.0882341689      
   OM= 261.2771090241423   W=  53.36399135060417   IN= 1.987806152492243       
  Equivalent ICRF heliocentric cartesian coordinates (au, au/d):
   X= 1.631856825953344E-01  Y=-8.815145891163165E-01  Z=-3.705958742828900E-01
  VX= 1.811434055353769E-02 VY= 4.114587132606022E-03 VZ= 2.434006136501484E-03
Asteroid physical parameters (km, seconds, rotational period in hours):        
   GM= n.a.                RAD= n.a.               ROTPER= n.a.                
   H= 23.64                G= .150                 B-V= n.a.                   
                           ALBEDO= n.a.            STYP= n.a.                  
*******************************************************************************
 Date__(UT)__HR:MN     R.A._________(ICRF)_________DEC
******************************************************
$$SOE
 2018-Sep-04 12:56  m  14 42 24.324981 +02 12 34.04667
 2018-Sep-04 12:57  m  14 42 24.501620 +02 12 34.81102
 2018-Sep-04 12:58  m  14 42 24.678293 +02 12 35.57545
 2018-Sep-04 12:59  m  14 42 24.855000 +02 12 36.33997
 2018-Sep-04 13:00  m  14 42 25.031741 +02 12 37.10456
 2018-Sep-04 13:01  m  14 42 25.208516 +02 12 37.86924
 2018-Sep-04 13:02  m  14 42 25.385323 +02 12 38.63400
 2018-Sep-04 13:03  m  14 42 25.562163 +02 12 39.39885
 2018-Sep-04 13:04  m  14 42 25.739036 +02 12 40.16377
 2018-Sep-04 13:05  m  14 42 25.915940 +02 12 40.92878
 2018-Sep-04 13:06  m  14 42 26.092876 +02 12 41.69387
 2018-Sep-04 13:07  m  14 42 26.269843 +02 12 42.45905
 2018-Sep-04 13:08  m  14 42 26.446841 +02 12 43.22430
 2018-Sep-04 13:09  m  14 42 26.623869 +02 12 43.98964
 2018-Sep-04 13:10  m  14 42 26.800926 +02 12 44.75506
 2018-Sep-04 13:11  m  14 42 26.978013 +02 12 45.52057
 2018-Sep-04 13:12  m  14 42 27.155129 +02 12 46.28616
 2018-Sep-04 13:13  m  14 42 27.332274 +02 12 47.05183
 2018-Sep-04 13:14  m  14 42 27.509447 +02 12 47.81758
 2018-Sep-04 13:15  m  14 42 27.686648 +02 12 48.58342
 2018-Sep-04 13:16  m  14 42 27.863876 +02 12 49.34934
 2018-Sep-04 13:17  m  14 42 28.041131 +02 12 50.11535
 2018-Sep-04 13:18  m  14 42 28.218413 +02 12 50.88144
 2018-Sep-04 13:19  m  14 42 28.395721 +02 12 51.64761
 2018-Sep-04 13:20  m  14 42 28.573055 +02 12 52.41387
 2018-Sep-04 13:21  m  14 42 28.750414 +02 12 53.18021
 2018-Sep-04 13:22  m  14 42 28.927798 +02 12 53.94663
 2018-Sep-04 13:23  m  14 42 29.105207 +02 12 54.71314
 2018-Sep-04 13:24  m  14 42 29.282639 +02 12 55.47973
 2018-Sep-04 13:25  m  14 42 29.460096 +02 12 56.24641
 2018-Sep-04 13:26  m  14 42 29.637576 +02 12 57.01317
 2018-Sep-04 13:27  m  14 42 29.815078 +02 12 57.78001
 2018-Sep-04 13:28  m  14 42 29.992603 +02 12 58.54694
 2018-Sep-04 13:29  m  14 42 30.170151 +02 12 59.31396
 2018-Sep-04 13:30  m  14 42 30.347719 +02 13 00.08105
 2018-Sep-04 13:31  m  14 42 30.525309 +02 13 00.84824
 2018-Sep-04 13:32  m  14 42 30.702920 +02 13 01.61550
 2018-Sep-04 13:33  m  14 42 30.880552 +02 13 02.38286
 2018-Sep-04 13:34  m  14 42 31.058203 +02 13 03.15029
 2018-Sep-04 13:35  m  14 42 31.235874 +02 13 03.91781
 2018-Sep-04 13:36  m  14 42 31.413564 +02 13 04.68542
 2018-Sep-04 13:37  m  14 42 31.591273 +02 13 05.45311
 2018-Sep-04 13:38  m  14 42 31.769000 +02 13 06.22089
 2018-Sep-04 13:39  m  14 42 31.946745 +02 13 06.98875
 2018-Sep-04 13:40  m  14 42 32.124508 +02 13 07.75670
 2018-Sep-04 13:41  m  14 42 32.302287 +02 13 08.52473
 2018-Sep-04 13:42  m  14 42 32.480084 +02 13 09.29285
 2018-Sep-04 13:43  m  14 42 32.657896 +02 13 10.06105
 2018-Sep-04 13:44  m  14 42 32.835725 +02 13 10.82934
 2018-Sep-04 13:45  m  14 42 33.013569 +02 13 11.59771
 2018-Sep-04 13:46  m  14 42 33.191427 +02 13 12.36617
 2018-Sep-04 13:47  m  14 42 33.369301 +02 13 13.13472
 2018-Sep-04 13:48  m  14 42 33.547188 +02 13 13.90335
 2018-Sep-04 13:49  m  14 42 33.725090 +02 13 14.67206
 2018-Sep-04 13:50  m  14 42 33.903004 +02 13 15.44087
 2018-Sep-04 13:51  m  14 42 34.080932 +02 13 16.20975
 2018-Sep-04 13:52  m  14 42 34.258872 +02 13 16.97873
 2018-Sep-04 13:53  m  14 42 34.436824 +02 13 17.74779
 2018-Sep-04 13:54  m  14 42 34.614788 +02 13 18.51693
 2018-Sep-04 13:55  m  14 42 34.792763 +02 13 19.28616
 2018-Sep-04 13:56  m  14 42 34.970748 +02 13 20.05548
 2018-Sep-04 13:57  m  14 42 35.148745 +02 13 20.82488
 2018-Sep-04 13:58  m  14 42 35.326751 +02 13 21.59437
 2018-Sep-04 13:59  m  14 42 35.504766 +02 13 22.36395
 2018-Sep-04 14:00  m  14 42 35.682791 +02 13 23.13361
 2018-Sep-04 14:01  m  14 42 35.860824 +02 13 23.90336
 2018-Sep-04 14:02  m  14 42 36.038866 +02 13 24.67319
 2018-Sep-04 14:03  m  14 42 36.216916 +02 13 25.44311
 2018-Sep-04 14:04  m  14 42 36.394973 +02 13 26.21312
 2018-Sep-04 14:05  m  14 42 36.573037 +02 13 26.98321
 2018-Sep-04 14:06  m  14 42 36.751107 +02 13 27.75339
 2018-Sep-04 14:07  m  14 42 36.929184 +02 13 28.52366
 2018-Sep-04 14:08  m  14 42 37.107267 +02 13 29.29401
 2018-Sep-04 14:09  m  14 42 37.285355 +02 13 30.06445
 2018-Sep-04 14:10  m  14 42 37.463447 +02 13 30.83498
 2018-Sep-04 14:11  m  14 42 37.641545 +02 13 31.60559
 2018-Sep-04 14:12  m  14 42 37.819646 +02 13 32.37629
 2018-Sep-04 14:13  m  14 42 37.997751 +02 13 33.14707
 2018-Sep-04 14:14  m  14 42 38.175859 +02 13 33.91795
 2018-Sep-04 14:15  m  14 42 38.353970 +02 13 34.68890
 2018-Sep-04 14:16  m  14 42 38.532083 +02 13 35.45995
 2018-Sep-04 14:17  m  14 42 38.710199 +02 13 36.23108
 2018-Sep-04 14:18  m  14 42 38.888315 +02 13 37.00230
 2018-Sep-04 14:19  m  14 42 39.066433 +02 13 37.77361
 2018-Sep-04 14:20  m  14 42 39.244552 +02 13 38.54500
 2018-Sep-04 14:21  m  14 42 39.422671 +02 13 39.31648
 2018-Sep-04 14:22  m  14 42 39.600790 +02 13 40.08804
 2018-Sep-04 14:23  m  14 42 39.778908 +02 13 40.85970
 2018-Sep-04 14:24  m  14 42 39.957025 +02 13 41.63144
 2018-Sep-04 14:25  m  14 42 40.135141 +02 13 42.40326
 2018-Sep-04 14:26  m  14 42 40.313255 +02 13 43.17518
 2018-Sep-04 14:27  m  14 42 40.491366 +02 13 43.94718
 2018-Sep-04 14:28  m  14 42 40.669475 +02 13 44.71926
 2018-Sep-04 14:29  m  14 42 40.847581 +02 13 45.49144
 2018-Sep-04 14:30  m  14 42 41.025683 +02 13 46.26370
 2018-Sep-04 14:31  m  14 42 41.203781 +02 13 47.03605
 2018-Sep-04 14:32  m  14 42 41.381875 +02 13 47.80848
 2018-Sep-04 14:33  m  14 42 41.559965 +02 13 48.58100
 2018-Sep-04 14:34  m  14 42 41.738049 +02 13 49.35361
 2018-Sep-04 14:35  m  14 42 41.916127 +02 13 50.12631
 2018-Sep-04 14:36  m  14 42 42.094199 +02 13 50.89909
 2018-Sep-04 14:37  m  14 42 42.272265 +02 13 51.67196
 2018-Sep-04 14:38  m  14 42 42.450324 +02 13 52.44492
 2018-Sep-04 14:39  m  14 42 42.628375 +02 13 53.21796
 2018-Sep-04 14:40  m  14 42 42.806419 +02 13 53.99109
 2018-Sep-04 14:41  m  14 42 42.984455 +02 13 54.76431
 2018-Sep-04 14:42  m  14 42 43.162482 +02 13 55.53761
 2018-Sep-04 14:43  m  14 42 43.340500 +02 13 56.31100
 2018-Sep-04 14:44  m  14 42 43.518509 +02 13 57.08448
 2018-Sep-04 14:45  m  14 42 43.696508 +02 13 57.85805
 2018-Sep-04 14:46  m  14 42 43.874496 +02 13 58.63170
 2018-Sep-04 14:47  m  14 42 44.052474 +02 13 59.40544
 2018-Sep-04 14:48  m  14 42 44.230441 +02 14 00.17927
 2018-Sep-04 14:49  m  14 42 44.408397 +02 14 00.95318
 2018-Sep-04 14:50  m  14 42 44.586340 +02 14 01.72718
 2018-Sep-04 14:51  m  14 42 44.764271 +02 14 02.50127
 2018-Sep-04 14:52  m  14 42 44.942190 +02 14 03.27544
 2018-Sep-04 14:53 Am  14 42 45.120095 +02 14 04.04970
 2018-Sep-04 14:54 Am  14 42 45.297986 +02 14 04.82405
 2018-Sep-04 14:55 Am  14 42 45.475864 +02 14 05.59848
 2018-Sep-04 14:56 Am  14 42 45.653727 +02 14 06.37300
 2018-Sep-04 14:57 Am  14 42 45.831576 +02 14 07.14761
 2018-Sep-04 14:58 Am  14 42 46.009409 +02 14 07.92230
